"OBJECT_NAME","OBJECT_ID","EPOCH","MEAN_MOTION","ECCENTRICITY","INCLINATION","RA_OF_ASC_NODE","ARG_OF_PERICENTER","MEAN_ANOMALY","EPHEMERIS_TYPE","CLASSIFICATION_TYPE","NORAD_CAT_ID","ELEMENT_SET_NO","REV_AT_EPOCH","BSTAR","MEAN_MOTION_DOT","MEAN_MOTION_DDOT"
"STARLINK-31891","2024-097V","2025-03-25T01:38:36.613248",15.27948108,0.000084,43.0013,89.1006,201.1359,158.9458,0,"U",59854,999,4846,-0.0020054,-0.00055653,0
"STARLINK-31882","2024-097W","2025-03-24T17:15:09.723456",15.40686942,0.0001194,43.0044,89.0362,245.416,114.6572,0,"U",59855,999,4841,0.000074321,0.00002801,0
"STARLINK-31691","2024-097X","2025-03-24T00:51:55.232352",15.27584612,0.0000923,43.0007,94.2478,187.8607,172.223,0,"U",59856,999,4829,-0.00010082,-0.00003036,0
"STARLINK-31569","2024-097Y","2025-03-25T01:16:02.887680",15.27567557,0.0004176,43.0047,88.9853,262.2296,97.8082,0,"U",59857,999,4846,0.00030751,0.00008207,0
"STARLINK-31654","2024-098A","2025-03-24T09:11:44.693088",15.40695319,0.00012,43.0046,100.4724,274.4675,85.6044,0,"U",59858,999,4821,-4.9077e-7,-0.00000324,0
"STARLINK-31442","2024-098B","2025-03-24T18:14:13.419456",15.28433819,0.0001826,43.0049,98.1128,256.4245,103.6403,0,"U",59859,999,4828,-0.00010266,-0.00003163,0
"STARLINK-31651","2024-098C","2025-03-25T01:56:03.848640",15.40682459,0.0002861,43.0033,96.2395,295.1262,64.9297,0,"U",59860,999,4763,-1.8429e-7,-0.00000312,0
"STARLINK-31584","2024-098E","2025-03-24T18:22:10.405344",15.40704348,0.0001379,43.0045,98.1739,242.2729,117.7988,0,"U",59862,999,4828,0.0000088538,6.6e-7,0
"STARLINK-31931","2024-098G","2025-03-24T17:33:46.731168",15.40727428,0.0001309,43.0058,97.9184,281.78,78.291,0,"U",59864,999,4828,-0.000066363,-0.00003077,0
"STARLINK-31941","2024-098J","2025-03-24T16:12:58.485888",15.40663881,0.0002231,43.0043,77.2334,295.4859,64.5767,0,"U",59866,999,4851,0.0000096777,0.000001,0
"STARLINK-31952","2024-098K","2025-03-24T17:53:09.110112",15.40690036,0.0001598,43.0044,98.0214,254.2541,105.8139,0,"U",59867,999,4828,0.00010661,0.00004151,0
"STARLINK-31921","2024-098L","2025-03-24T23:10:48.714240",15.40703897,0.0001419,43.005,63.26,259.7227,100.347,0,"U",59868,999,4803,0.0001012,0.00003926,0
"STARLINK-31945","2024-098N","2025-03-24T12:15:12.663936",15.4071708,0.0000578,42.9997,99.703,190.1661,169.9184,0,"U",59870,999,4759,-0.00011334,-0.00005037,0
"STARLINK-31937","2024-098P","2025-03-25T00:38:47.527008",15.40806428,0.0002158,43.0038,96.7013,285.0085,75.0533,0,"U",59871,999,4767,-0.00049592,-0.00021037,0
"STARLINK-31940","2024-098R","2025-03-24T18:18:57.179520",15.4070394,0.0001744,43.0058,98.1575,258.3857,101.6804,0,"U",59873,999,4828,0.00013681,0.00005416,0
"STARLINK-31933","2024-098S","2025-03-24T18:15:44.250048",15.40692615,0.0000697,43.0034,98.1409,281.5899,78.488,0,"U",59874,999,4828,-0.000022799,-0.00001255,0
"STARLINK-31936","2024-098T","2025-03-25T01:08:26.943648",15.27572854,0.0001327,43.0034,60.2524,260.0268,100.0434,0,"U",59875,999,4809,0.00053755,0.00014556,0
"STARLINK-31935","2024-098U","2025-03-24T17:43:28.046784",15.40702788,0.0000958,43.0029,97.9674,280.2622,79.8126,0,"U",59876,999,4763,0.00001408,0.00000285,0
"STARLINK-31926","2024-098X","2025-03-24T16:22:03.233568",15.27581475,0.0001053,43.0027,84.1431,255.6234,104.45,0,"U",59879,999,4843,0.000047855,0.00001055,0
"STARLINK-31919","2024-098Y","2025-03-25T00:16:14.358720",15.40682249,0.0002895,43.007,96.577,268.7444,91.3081,0,"U",59880,999,4832,0.00048035,0.00019803,0
"PREFIRE-2","2024-099A","2025-03-24T07:22:12.400608",15.16577939,0.0012782,97.4628,301.8295,341.5306,18.5461,0,"U",59881,999,4584,0.00047841,0.00009297,0
"STARLINK-31974","2024-100A","2025-03-24T17:22:25.061088",15.40651866,0.0003616,43.0023,302.7316,307.1529,52.8997,0,"U",59885,999,4752,0.000093342,0.00003591,0
"STARLINK-31975","2024-100B","2025-03-24T23:29:22.103520",15.40681715,0.0000986,42.9999,301.1985,251.2786,108.7964,0,"U",59886,999,4765,5.5254e-7,-0.0000028,0
"STARLINK-31976","2024-100C","2025-03-25T00:28:23.818368",15.27601884,0.000138,43.0018,304.0715,275.4873,84.5821,0,"U",59887,999,4762,0.00019974,0.00005242,0
