STARLINK-31891          
1 59854U 24097V   25084.06847932 -.00055653  00000+0 -20054-2 0  9999
2 59854  43.0013  89.1006 0000840 201.1359 158.9458 15.27948108 48468
STARLINK-31882          
1 59855U 24097W   25083.71886254  .00002801  00000+0  74321-4 0  9994
2 59855  43.0044  89.0362 0001194 245.4160 114.6572 15.40686942 48412
STARLINK-31691          
1 59856U 24097X   25083.03605593 -.00003036  00000+0 -10082-3 0  9991
2 59856  43.0007  94.2478 0000923 187.8607 172.2230 15.27584612 48295
STARLINK-31569          
1 59857U 24097Y   25084.05281120  .00008207  00000+0  30751-3 0  9999
2 59857  43.0047  88.9853 0004176 262.2296  97.8082 15.27567557 48468
STARLINK-31654          
1 59858U 24098A   25083.38315617 -.00000324  00000+0 -49077-6 0  9993
2 59858  43.0046 100.4724 0001200 274.4675  85.6044 15.40695319 48215
STARLINK-31442          
1 59859U 24098B   25083.75987754 -.00003163  00000+0 -10266-3 0  9991
2 59859  43.0049  98.1128 0001826 256.4245 103.6403 15.28433819 48285
STARLINK-31651          
1 59860U 24098C   25084.08060010 -.00000312  00000+0 -18429-6 0  9992
2 59860  43.0033  96.2395 0002861 295.1262  64.9297 15.40682459 47632
STARLINK-31584          
1 59862U 24098E   25083.76539821  .00000066  00000+0  88538-5 0  9990
2 59862  43.0045  98.1739 0001379 242.2729 117.7988 15.40704348 48282
STARLINK-31931          
1 59864U 24098G   25083.73179087 -.00003077  00000+0 -66363-4 0  9991
2 59864  43.0058  97.9184 0001309 281.7800  78.2910 15.40727428 48280
STARLINK-31941          
1 59866U 24098J   25083.67567692  .00000100  00000+0  96777-5 0  9994
2 59866  43.0043  77.2334 0002231 295.4859  64.5767 15.40663881 48511
STARLINK-31952          
1 59867U 24098K   25083.74524433  .00004151  00000+0  10661-3 0  9995
2 59867  43.0044  98.0214 0001598 254.2541 105.8139 15.40690036 48285
STARLINK-31921          
1 59868U 24098L   25083.96584160  .00003926  00000+0  10120-3 0  9992
2 59868  43.0050  63.2600 0001419 259.7227 100.3470 15.40703897 48030
STARLINK-31945          
1 59870U 24098N   25083.51056324 -.00005037  00000+0 -11334-3 0  9997
2 59870  42.9997  99.7030 0000578 190.1661 169.9184 15.40717080 47599
STARLINK-31937          
1 59871U 24098P   25084.02693897 -.00021037  00000+0 -49592-3 0  9992
2 59871  43.0038  96.7013 0002158 285.0085  75.0533 15.40806428 47675
STARLINK-31940          
1 59873U 24098R   25083.76316180  .00005416  00000+0  13681-3 0  9992
2 59873  43.0058  98.1575 0001744 258.3857 101.6804 15.40703940 48288
STARLINK-31933          
1 59874U 24098S   25083.76092882 -.00001255  00000+0 -22799-4 0  9993
2 59874  43.0034  98.1409 0000697 281.5899  78.4880 15.40692615 48280
STARLINK-31936          
1 59875U 24098T   25084.04753407  .00014556  00000+0  53755-3 0  9994
2 59875  43.0034  60.2524 0001327 260.0268 100.0434 15.27572854 48095
STARLINK-31935          
1 59876U 24098U   25083.73851906  .00000285  00000+0  14080-4 0  9996
2 59876  43.0029  97.9674 0000958 280.2622  79.8126 15.40702788 48288
STARLINK-31926          
1 59879U 24098X   25083.68198187  .00001055  00000+0  47855-4 0  9990
2 59879  43.0027  84.1431 0001053 255.6234 104.4500 15.27581475 48431
STARLINK-31919          
1 59880U 24098Y   25084.01127730  .00019803  00000+0  48035-3 0  9996
2 59880  43.0070  96.5770 0002895 268.7444  91.3081 15.40682249 48329
PREFIRE-2               
1 59881U 24099A   25083.30708797  .00009297  00000+0  47841-3 0  9997
2 59881  97.4628 301.8295 0012782 341.5306  18.5461 15.16577939 45848
STARLINK-31974          
1 59885U 24100A   25083.72390117  .00003591  00000+0  93342-4 0  9992
2 59885  43.0023 302.7316 0003616 307.1529  52.8997 15.40651866 47524
STARLINK-31975          
1 59886U 24100B   25083.97872805 -.00000280  00000+0  55254-6 0  9994
2 59886  42.9999 301.1985 0000986 251.2786 108.7964 15.40681715 47656
STARLINK-31976          
1 59887U 24100C   25084.01972012  .00005242  00000+0  19974-3 0  9990
2 59887  43.0018 304.0715 0001380 275.4873  84.5821 15.27601884 47622
